start=new Date('2021-10-07T00:00:00.000Z').valueOf();
sats=[{"BSTAR":"0.00026436000000","CLASSIFICATION_TYPE":"U","ELEMENT_SET_NO":"999","SEMIMAJOR_AXIS":"6737.749","INCLINATION":"70.0013","RA_OF_ASC_NODE":"62.7402","EPOCH":"2021-10-06T22:00:00.999936","CENTER_NAME":"EARTH","GP_ID":"186393668","APOAPSIS":"362.095","EPHEMERIS_TYPE":"0","OBJECT_NAME":"STARLINK-3101","MEAN_MOTION_DDOT":"0.0000000000000","COUNTRY_CODE":"US","TLE_LINE1":"1 49168U 21082AQ  21279.91667824  .00031467  00000-0  26436-3 0  9990","LAUNCH_DATE":"2021-09-14","RCS_SIZE":"LARGE","FILE":"3148116","MEAN_ELEMENT_THEORY":"SGP4","MEAN_ANOMALY":"24.4454","REV_AT_EPOCH":"489","OBJECT_ID":"2021-082AQ","REF_FRAME":"TEME","NORAD_CAT_ID":"49168","MEAN_MOTION_DOT":"0.00031467","ARG_OF_PERICENTER":"281.4810","PERIAPSIS":"357.134","TLE_LINE2":"2 49168  70.0013  62.7402 0003682 281.4810  24.4454 15.69749982  4899","MEAN_MOTION":"15.69749982","OBJECT_TYPE":"PAYLOAD","SITE":"AFWTR","PERIOD":"91.734","TIME_SYSTEM":"UTC","ECCENTRICITY":"0.00036820","DECAY_DATE":null},{"OBJECT_TYPE":"PAYLOAD","SITE":"AFWTR","PERIOD":"91.735","MEAN_MOTION":"15.69740622","TLE_LINE2":"2 49169  70.0020  62.7439 0003562 282.0295  19.5817 15.69740622  4899","PERIAPSIS":"357.241","DECAY_DATE":null,"TIME_SYSTEM":"UTC","ECCENTRICITY":"0.00035620","RCS_SIZE":"LARGE","TLE_LINE1":"1 49169U 21082AR  21279.91667824  .00020054  00000-0  16942-3 0  9992","LAUNCH_DATE":"2021-09-14","ARG_OF_PERICENTER":"282.0295","MEAN_MOTION_DOT":"0.00020054","OBJECT_ID":"2021-082AR","NORAD_CAT_ID":"49169","REF_FRAME":"TEME","MEAN_ANOMALY":"19.5817","MEAN_ELEMENT_THEORY":"SGP4","REV_AT_EPOCH":"489","FILE":"3148137","GP_ID":"186394447","CENTER_NAME":"EARTH","APOAPSIS":"362.041","COUNTRY_CODE":"US","OBJECT_NAME":"STARLINK-3046","EPHEMERIS_TYPE":"0","MEAN_MOTION_DDOT":"0.0000000000000","CLASSIFICATION_TYPE":"U","BSTAR":"0.00016942000000","EPOCH":"2021-10-06T22:00:00.999936","RA_OF_ASC_NODE":"62.7439","SEMIMAJOR_AXIS":"6737.776","INCLINATION":"70.0020","ELEMENT_SET_NO":"999"},{"BSTAR":"-0.00046911000000","CLASSIFICATION_TYPE":"U","RA_OF_ASC_NODE":"62.7326","EPOCH":"2021-10-06T22:00:00.999936","INCLINATION":"70.0005","SEMIMAJOR_AXIS":"6737.604","ELEMENT_SET_NO":"999","GP_ID":"186426488","CENTER_NAME":"EARTH","APOAPSIS":"361.835","COUNTRY_CODE":"US","EPHEMERIS_TYPE":"0","OBJECT_NAME":"STARLINK-3074","MEAN_MOTION_DDOT":"0.0000000000000","RCS_SIZE":"LARGE","TLE_LINE1":"1 49170U 21082AS  21279.91667824 -.00055962  00000-0 -46911-3 0  9991","LAUNCH_DATE":"2021-09-14","ARG_OF_PERICENTER":"280.7154","MEAN_MOTION_DOT":"-0.00055962","OBJECT_ID":"2021-082AS","NORAD_CAT_ID":"49170","REF_FRAME":"TEME","MEAN_ELEMENT_THEORY":"SGP4","MEAN_ANOMALY":"31.5139","REV_AT_EPOCH":"373","FILE":"3148521","OBJECT_TYPE":"PAYLOAD","SITE":"AFWTR","PERIOD":"91.731","MEAN_MOTION":"15.69800860","TLE_LINE2":"2 49170  70.0005  62.7326 0003512 280.7154  31.5139 15.69800860  3737","PERIAPSIS":"357.103","DECAY_DATE":null,"ECCENTRICITY":"0.00035120","TIME_SYSTEM":"UTC"},{"DECAY_DATE":null,"TIME_SYSTEM":"UTC","ECCENTRICITY":"0.00033840","PERIOD":"91.734","SITE":"AFWTR","OBJECT_TYPE":"PAYLOAD","TLE_LINE2":"2 49171  69.9998  62.7348 0003384 271.8923  31.6335 15.69747574  3946","MEAN_MOTION":"15.69747574","PERIAPSIS":"357.341","ARG_OF_PERICENTER":"271.8923","MEAN_MOTION_DOT":"0.00000286","NORAD_CAT_ID":"49171","REF_FRAME":"TEME","OBJECT_ID":"2021-082AT","REV_AT_EPOCH":"394","MEAN_ANOMALY":"31.6335","MEAN_ELEMENT_THEORY":"SGP4","FILE":"3148521","RCS_SIZE":"LARGE","LAUNCH_DATE":"2021-09-14","TLE_LINE1":"1 49171U 21082AT  21279.91667824  .00000286  00000-0  41714-5 0  9997","COUNTRY_CODE":"US","MEAN_MOTION_DDOT":"0.0000000000000","EPHEMERIS_TYPE":"0","OBJECT_NAME":"STARLINK-3107","APOAPSIS":"361.901","CENTER_NAME":"EARTH","GP_ID":"186426903","EPOCH":"2021-10-06T22:00:00.999936","RA_OF_ASC_NODE":"62.7348","SEMIMAJOR_AXIS":"6737.756","INCLINATION":"69.9998","ELEMENT_SET_NO":"999","BSTAR":"0.00000417140000","CLASSIFICATION_TYPE":"U"},{"BSTAR":"0.00015715000000","CLASSIFICATION_TYPE":"U","INCLINATION":"70.0020","SEMIMAJOR_AXIS":"6737.804","EPOCH":"2021-10-06T22:00:00.999936","RA_OF_ASC_NODE":"62.7290","ELEMENT_SET_NO":"999","CENTER_NAME":"EARTH","GP_ID":"186395327","APOAPSIS":"362.253","COUNTRY_CODE":"US","EPHEMERIS_TYPE":"0","OBJECT_NAME":"STARLINK-3091","MEAN_MOTION_DDOT":"0.0000000000000","TLE_LINE1":"1 49172U 21082AU  21279.91667824  .00018577  00000-0  15715-3 0  9990","LAUNCH_DATE":"2021-09-14","RCS_SIZE":"LARGE","OBJECT_ID":"2021-082AU","REF_FRAME":"TEME","NORAD_CAT_ID":"49172","MEAN_MOTION_DOT":"0.00018577","ARG_OF_PERICENTER":"279.1464","FILE":"3148172","MEAN_ELEMENT_THEORY":"SGP4","MEAN_ANOMALY":"35.2511","REV_AT_EPOCH":"368","MEAN_MOTION":"15.69730960","TLE_LINE2":"2 49172  70.0020  62.7290 0003836 279.1464  35.2511 15.69730960  3683","SITE":"AFWTR","OBJECT_TYPE":"PAYLOAD","PERIOD":"91.735","PERIAPSIS":"357.084","DECAY_DATE":null,"TIME_SYSTEM":"UTC","ECCENTRICITY":"0.00038360"},{"NORAD_CAT_ID":"49173","REF_FRAME":"TEME","OBJECT_ID":"2021-082AV","MEAN_MOTION_DOT":"-0.00030706","ARG_OF_PERICENTER":"283.6530","FILE":"3148521","REV_AT_EPOCH":"375","MEAN_ELEMENT_THEORY":"SGP4","MEAN_ANOMALY":"297.1018","LAUNCH_DATE":"2021-09-14","TLE_LINE1":"1 49173U 21082AV  21279.91667824 -.00030706  00000-0 -25603-3 0  9998","RCS_SIZE":"LARGE","DECAY_DATE":null,"TIME_SYSTEM":"UTC","ECCENTRICITY":"0.00033990","MEAN_MOTION":"15.69781921","TLE_LINE2":"2 49173  70.0011  62.4200 0003399 283.6530 297.1018 15.69781921  3752","PERIOD":"91.732","SITE":"AFWTR","OBJECT_TYPE":"PAYLOAD","PERIAPSIS":"357.233","SEMIMAJOR_AXIS":"6737.658","INCLINATION":"70.0011","EPOCH":"2021-10-06T22:00:00.999936","RA_OF_ASC_NODE":"62.4200","ELEMENT_SET_NO":"999","CLASSIFICATION_TYPE":"U","BSTAR":"-0.00025603000000","COUNTRY_CODE":"US","MEAN_MOTION_DDOT":"0.0000000000000","EPHEMERIS_TYPE":"0","OBJECT_NAME":"STARLINK-3045","APOAPSIS":"361.813","GP_ID":"186426703","CENTER_NAME":"EARTH"},{"GP_ID":"186426155","CENTER_NAME":"EARTH","APOAPSIS":"361.615","EPHEMERIS_TYPE":"0","OBJECT_NAME":"STARLINK-3047","MEAN_MOTION_DDOT":"0.0000000000000","COUNTRY_CODE":"US","CLASSIFICATION_TYPE":"U","BSTAR":"-0.00434980000000","ELEMENT_SET_NO":"999","EPOCH":"2021-10-06T22:00:00.999936","RA_OF_ASC_NODE":"62.7316","INCLINATION":"70.0001","SEMIMAJOR_AXIS":"6737.216","PERIAPSIS":"356.546","SITE":"AFWTR","OBJECT_TYPE":"PAYLOAD","PERIOD":"91.723","TLE_LINE2":"2 49174  70.0001  62.7316 0003762 279.5844  30.4785 15.69936542  3827","MEAN_MOTION":"15.69936542","ECCENTRICITY":"0.00037620","TIME_SYSTEM":"UTC","DECAY_DATE":null,"RCS_SIZE":"LARGE","TLE_LINE1":"1 49174U 21082AW  21279.91667824 -.00493970  00000-0 -43498-2 0  9996","LAUNCH_DATE":"2021-09-14","MEAN_ANOMALY":"30.4785","MEAN_ELEMENT_THEORY":"SGP4","REV_AT_EPOCH":"382","FILE":"3148521","ARG_OF_PERICENTER":"279.5844","MEAN_MOTION_DOT":"-0.00493970","OBJECT_ID":"2021-082AW","NORAD_CAT_ID":"49174","REF_FRAME":"TEME"},{"ECCENTRICITY":"0.00036500","TIME_SYSTEM":"UTC","DECAY_DATE":null,"PERIAPSIS":"357.006","MEAN_MOTION":"15.69802247","TLE_LINE2":"2 49175  70.0026  62.7276 0003650 280.8128  35.6829 15.69802247  3680","OBJECT_TYPE":"PAYLOAD","SITE":"AFWTR","PERIOD":"91.731","FILE":"3148176","MEAN_ELEMENT_THEORY":"SGP4","MEAN_ANOMALY":"35.6829","REV_AT_EPOCH":"368","OBJECT_ID":"2021-082AX","NORAD_CAT_ID":"49175","REF_FRAME":"TEME","ARG_OF_PERICENTER":"280.8128","MEAN_MOTION_DOT":"-0.00076665","TLE_LINE1":"1 49175U 21082AX  21279.91667824 -.00076665  00000-0 -64485-3 0  9995","LAUNCH_DATE":"2021-09-14","RCS_SIZE":"LARGE","OBJECT_NAME":"STARLINK-3087","EPHEMERIS_TYPE":"0","MEAN_MOTION_DDOT":"0.0000000000000","COUNTRY_CODE":"US","GP_ID":"186395642","CENTER_NAME":"EARTH","APOAPSIS":"361.924","ELEMENT_SET_NO":"999","SEMIMAJOR_AXIS":"6737.600","INCLINATION":"70.0026","RA_OF_ASC_NODE":"62.7276","EPOCH":"2021-10-06T22:00:00.999936","CLASSIFICATION_TYPE":"U","BSTAR":"-0.00064485000000"},{"MEAN_MOTION_DDOT":"0.0000000000000","OBJECT_NAME":"STARLINK-3069","EPHEMERIS_TYPE":"0","COUNTRY_CODE":"US","APOAPSIS":"361.979","GP_ID":"186397727","CENTER_NAME":"EARTH","ELEMENT_SET_NO":"999","INCLINATION":"70.0015","SEMIMAJOR_AXIS":"6737.713","EPOCH":"2021-10-06T22:00:00.999936","RA_OF_ASC_NODE":"62.7168","BSTAR":"-0.00032363000000","CLASSIFICATION_TYPE":"U","ECCENTRICITY":"0.00035640","TIME_SYSTEM":"UTC","DECAY_DATE":null,"PERIAPSIS":"357.176","MEAN_MOTION":"15.69762811","TLE_LINE2":"2 49176  70.0015  62.7168 0003564 282.5635  42.4620 15.69762811  3682","PERIOD":"91.734","OBJECT_TYPE":"PAYLOAD","SITE":"AFWTR","FILE":"3148283","REV_AT_EPOCH":"368","MEAN_ANOMALY":"42.4620","MEAN_ELEMENT_THEORY":"SGP4","REF_FRAME":"TEME","NORAD_CAT_ID":"49176","OBJECT_ID":"2021-082AY","ARG_OF_PERICENTER":"282.5635","MEAN_MOTION_DOT":"-0.00038691","LAUNCH_DATE":"2021-09-14","TLE_LINE1":"1 49176U 21082AY  21279.91667824 -.00038691  00000-0 -32363-3 0  9993","RCS_SIZE":"LARGE"},{"BSTAR":"0.00047673000000","CLASSIFICATION_TYPE":"U","SEMIMAJOR_AXIS":"6737.621","INCLINATION":"70.0009","RA_OF_ASC_NODE":"62.7258","EPOCH":"2021-10-06T22:00:00.999936","ELEMENT_SET_NO":"999","APOAPSIS":"361.842","CENTER_NAME":"EARTH","GP_ID":"186397733","COUNTRY_CODE":"US","MEAN_MOTION_DDOT":"0.0000000000000","OBJECT_NAME":"STARLINK-3103","EPHEMERIS_TYPE":"0","LAUNCH_DATE":"2021-09-14","TLE_LINE1":"1 49177U 21082AZ  21279.91667824  .00057196  00000-0  47673-3 0  9993","RCS_SIZE":"LARGE","NORAD_CAT_ID":"49177","REF_FRAME":"TEME","OBJECT_ID":"2021-082AZ","ARG_OF_PERICENTER":"283.5359","MEAN_MOTION_DOT":"0.00057196","FILE":"3148283","REV_AT_EPOCH":"488","MEAN_ELEMENT_THEORY":"SGP4","MEAN_ANOMALY":"35.1445","TLE_LINE2":"2 49177  70.0009  62.7258 0003497 283.5359  35.1445 15.69794733  4880","MEAN_MOTION":"15.69794733","PERIOD":"91.732","OBJECT_TYPE":"PAYLOAD","SITE":"AFWTR","PERIAPSIS":"357.130","DECAY_DATE":null,"TIME_SYSTEM":"UTC","ECCENTRICITY":"0.00034970"}];
